[{"OBJECT_NAME":"STARLINK-36334","OBJECT_ID":"2026-008AC","EPOCH":"2026-03-09T09:38:53.657088","MEAN_MOTION":15.27631199,"ECCENTRICITY":0.00046191,"INCLINATION":43.0015,"RA_OF_ASC_NODE":207.2306,"ARG_OF_PERICENTER":300.6201,"MEAN_ANOMALY":59.4195,"EPHEMERIS_TYPE":0,"CLASSIFICATION_TYPE":"U","NORAD_CAT_ID":67471,"ELEMENT_SET_NO":999,"REV_AT_EPOCH":952,"BSTAR":0.0015508272,"MEAN_MOTION_DOT":0.00042737,"MEAN_MOTION_DDOT":0},{"OBJECT_NAME":"COSMOS 2251 DEB","OBJECT_ID":"1993-036N","EPOCH":"2026-03-09T20:39:34.848000","MEAN_MOTION":15.17003756,"ECCENTRICITY":0.00564486,"INCLINATION":74.0035,"RA_OF_ASC_NODE":352.1163,"ARG_OF_PERICENTER":60.1769,"MEAN_ANOMALY":300.5022,"EPHEMERIS_TYPE":0,"CLASSIFICATION_TYPE":"U","NORAD_CAT_ID":33765,"ELEMENT_SET_NO":999,"REV_AT_EPOCH":90936,"BSTAR":0.0026022202,"MEAN_MOTION_DOT":0.00053945,"MEAN_MOTION_DDOT":0}]
